[{"OBJECT_NAME":"NASBSAT-1","OBJECT_ID":"2025-313AT","EPOCH":"2026-03-09T22:27:05.348448","MEAN_MOTION":15.23392986,"ECCENTRICITY":0.00090189,"INCLINATION":97.4003,"RA_OF_ASC_NODE":145.3477,"ARG_OF_PERICENTER":353.1124,"MEAN_ANOMALY":6.9987,"EPHEMERIS_TYPE":0,"CLASSIFICATION_TYPE":"U","NORAD_CAT_ID":67289,"ELEMENT_SET_NO":999,"REV_AT_EPOCH":1086,"BSTAR":0.00068712431,"MEAN_MOTION_DOT":0.00016315,"MEAN_MOTION_DDOT":0},{"OBJECT_NAME":"FENGYUN 1C DEB","OBJECT_ID":"1999-025FN","EPOCH":"2026-03-09T22:18:23.675616","MEAN_MOTION":14.79879453,"ECCENTRICITY":0.01939452,"INCLINATION":97.9352,"RA_OF_ASC_NODE":118.672,"ARG_OF_PERICENTER":81.3681,"MEAN_ANOMALY":358.3473,"EPHEMERIS_TYPE":0,"CLASSIFICATION_TYPE":"U","NORAD_CAT_ID":29868,"ELEMENT_SET_NO":999,"REV_AT_EPOCH":1584,"BSTAR":0.0007539816,"MEAN_MOTION_DOT":7.789e-5,"MEAN_MOTION_DDOT":0}]
